NORAD_CAT_ID,OBJECT_NAME,OBJECT_TYPE,EPOCH,MEAN_MOTION,ECCENTRICITY,INCLINATION,RA_OF_ASC_NODE,ARG_OF_PERICENTER,MEAN_ANOMALY,BSTAR,MEAN_MOTION_DOT,MEAN_MOTION_DDOT,TLE_LINE0,TLE_LINE1,TLE_LINE2,SEMIMAJOR_AXIS,PERIOD,APOGEE,PERIGEE,DECAYED
52701.0,STARLINK-4003,PAYLOAD,2023-02-05 13:13:30,15.08838432,0.0001161,53.2142,158.5423,96.3431,263.7693,3.3692e-05,2.48e-06,0.0,0 STARLINK-4003,1 52701U 22053AX  23036.55104671  .00000248  00000-0  33692-4 0  9991,2 52701  53.2142 158.5423 0001161  96.3431 263.7693 15.08838432 40571,6917.885,95.438,540.553,538.947,0.0
52701.0,STARLINK-4003,PAYLOAD,2023-02-05 17:59:39,15.08840487,0.0001228,53.2137,157.6484,107.8057,252.3069,5.4822e-05,5.85e-06,0.0,0 STARLINK-4003,1 52701U 22053AX  23036.74976468  .00000585  00000-0  54822-4 0  9995,2 52701  53.2137 157.6484 0001228 107.8057 252.3069 15.08840487 41034,6917.879,95.438,540.593,538.894,0.0
52701.0,STARLINK-4003,PAYLOAD,2023-02-06 13:04:17,15.0884634,0.0001332,53.2148,154.079,117.8931,242.2196,8.045e-05,9.93e-06,0.0,0 STARLINK-4003,1 52701U 22053AX  23037.54464126  .00000993  00000-0  80450-4 0  9996,2 52701  53.2148 154.0790 0001332 117.8931 242.2196 15.08846340 41151,6917.861,95.437,540.647,538.805,0.0
52701.0,STARLINK-4003,PAYLOAD,2023-02-06 14:39:39,15.08848811,0.000128,53.2148,153.7815,117.3147,242.7975,9.998e-05,1.304e-05,0.0,0 STARLINK-4003,1 52701U 22053AX  23037.61087961  .00001304  00000-0  99980-4 0  9997,2 52701  53.2148 153.7815 0001280 117.3147 242.7975 15.08848811 40739,6917.853,95.437,540.604,538.833,0.0
52701.0,STARLINK-4003,PAYLOAD,2023-02-07 11:19:40,15.08843033,0.0001338,53.2179,149.9203,110.8305,249.2831,7.4349e-05,8.96e-06,0.0,0 STARLINK-4003,1 52701U 22053AX  23038.47200101  .00000896  00000-0  74349-4 0  9992,2 52701  53.2179 149.9203 0001338 110.8305 249.2831 15.08843033 40867,6917.871,95.437,540.662,538.811,0.0
52701.0,STARLINK-4003,PAYLOAD,2023-02-07 14:30:27,15.0884587,0.0001288,53.2174,149.3247,113.4941,246.6186,0.00012745,1.741e-05,0.0,0 STARLINK-4003,1 52701U 22053AX  23038.60447917  .00001741  00000-0  12745-3 0  9996,2 52701  53.2174 149.3247 0001288 113.4941 246.6186 15.08845870 41319,6917.862,95.437,540.618,538.836,0.0
52701.0,STARLINK-4003,PAYLOAD,2023-02-08 11:10:28,15.08831129,0.0001258,53.2161,145.4559,104.5712,255.542,-0.00021779,-3.751e-05,0.0,0 STARLINK-4003,1 52701U 22053AX  23039.46560974 -.00003751  00000-0 -21779-3 0  9992,2 52701  53.2161 145.4559 0001258 104.5712 255.5420 15.08831129 41011,6917.908,95.438,540.643,538.902,0.0
52701.0,STARLINK-4003,PAYLOAD,2023-02-08 12:45:51,15.08832968,0.000118,53.2144,145.1578,82.9247,277.1879,-0.00014956,-2.667e-05,0.0,0 STARLINK-4003,1 52701U 22053AX  23039.53184990 -.00002667  00000-0 -14956-3 0  9994,2 52701  53.2144 145.1578 0001180  82.9247 277.1879 15.08832968 41454,6917.902,95.438,540.583,538.951,0.0
52701.0,STARLINK-4003,PAYLOAD,2023-02-08 17:32:01,15.08840314,0.000127,53.2154,144.2666,87.3324,272.7814,-1.2213e-06,-3.07e-06,0.0,0 STARLINK-4003,1 52701U 22053AX  23039.73056746 -.00000307  00000-0 -12213-5 0  9998,2 52701  53.2154 144.2666 0001270  87.3324 272.7814 15.08840314 41058,6917.879,95.438,540.623,538.866,0.0
52701.0,STARLINK-4003,PAYLOAD,2023-02-08 19:07:24,15.08841184,0.0001269,53.2152,143.9671,96.0667,264.0469,-1.1607e-06,-3.06e-06,0.0,0 STARLINK-4003,1 52701U 22053AX  23039.79680703 -.00000306  00000-0 -11607-5 0  9995,2 52701  53.2152 143.9671 0001269  96.0667 264.0469 15.08841184 41497,6917.877,95.437,540.62,538.864,0.0
52701.0,STARLINK-4003,PAYLOAD,2023-02-09 11:01:15,15.08845439,0.0001315,53.2156,140.9985,100.8398,259.2743,0.0002312,3.394e-05,0.0,0 STARLINK-4003,1 52701U 22053AX  23040.45920662  .00003394  00000-0  23120-3 0  9990,2 52701  53.2156 140.9985 0001315 100.8398 259.2743 15.08845439 41592,6917.864,95.437,540.638,538.819,0.0
52701.0,STARLINK-4003,PAYLOAD,2023-02-09 12:36:38,15.08850857,0.0001458,53.2153,140.6988,94.8706,265.2453,0.00023147,3.399e-05,0.0,0 STARLINK-4003,1 52701U 22053AX  23040.52544414  .00003399  00000-0  23147-3 0  9999,2 52701  53.2153 140.6988 0001458  94.8706 265.2453 15.08850857 41171,6917.847,95.437,540.721,538.704,0.0
52701.0,STARLINK-4003,PAYLOAD,2023-02-09 18:58:09,15.08868426,0.0001251,53.2146,139.5063,93.9348,266.1787,0.0004853,7.45e-05,0.0,0 STARLINK-4003,1 52701U 22053AX  23040.79039346  .00007450  00000-0  48530-3 0  9996,2 52701  53.2146 139.5063 0001251  93.9348 266.1787 15.08868426 41213,6917.794,95.436,540.524,538.793,0.0
52701.0,STARLINK-4003,PAYLOAD,2023-02-09 23:44:20,15.08834968,4.45e-05,53.2151,138.618,94.9655,265.1388,-5.4741e-05,-1.158e-05,0.0,0 STARLINK-4003,1 52701U 22053AX  23040.98912610 -.00001158  00000-0 -54741-4 0  9994,2 52701  53.2151 138.6180 0000445  94.9655 265.1388 15.08834968 41248,6917.896,95.438,540.069,539.453,0.0
52701.0,STARLINK-4003,PAYLOAD,2023-02-10 12:27:25,15.08857654,0.0001559,53.214,136.243,77.8665,282.2502,0.00051772,7.965e-05,0.0,0 STARLINK-4003,1 52701U 22053AX  23041.51904074  .00007965  00000-0  51772-3 0  9999,2 52701  53.2140 136.2430 0001559  77.8665 282.2502 15.08857654 41320,6917.826,95.436,540.77,538.613,0.0
52701.0,STARLINK-4003,PAYLOAD,2023-02-10 15:38:10,15.08880003,0.0001101,53.2142,135.6412,90.4786,269.6332,0.00075268,0.00011724,0.0,0 STARLINK-4003,1 52701U 22053AX  23041.65150826  .00011724  00000-0  75268-3 0  9996,2 52701  53.2142 135.6412 0001101  90.4786 269.6332 15.08880003 41349,6917.758,95.435,540.385,538.861,0.0
52701.0,STARLINK-4003,PAYLOAD,2023-02-10 23:35:07,15.08840063,0.0001285,53.2143,134.1586,91.9515,268.1624,-0.00010529,-1.963e-05,0.0,0 STARLINK-4003,1 52701U 22053AX  23041.98272169 -.00001963  00000-0 -10529-3 0  9992,2 52701  53.2143 134.1586 0001285  91.9515 268.1624 15.08840063 41390,6917.88,95.438,540.634,538.856,0.0
52701.0,STARLINK-4003,PAYLOAD,2023-02-11 09:07:26,15.08822816,0.000134,53.215,132.3733,103.0477,257.0665,-0.00043172,-7.149e-05,0.0,0 STARLINK-4003,1 52701U 22053AX  23042.38017038 -.00007149  00000-0 -43172-3 0  9991,2 52701  53.2150 132.3733 0001340 103.0477 257.0665 15.08822816 41451,6917.933,95.439,540.725,538.871,0.0
52701.0,STARLINK-4003,PAYLOAD,2023-02-11 15:28:58,15.08842563,0.0001246,53.214,131.1826,95.663,264.4504,-8.5696e-05,-1.652e-05,0.0,0 STARLINK-4003,1 52701U 22053AX  23042.64512428 -.00001652  00000-0 -85696-4 0  9994,2 52701  53.2140 131.1826 0001246  95.6630 264.4504 15.08842563 41491,6917.873,95.437,540.6,538.876,0.0
52701.0,STARLINK-4003,PAYLOAD,2023-02-11 23:25:55,15.08830658,0.000149,53.2146,129.696,85.5717,274.5445,-0.00015397,-2.737e-05,0.0,0 STARLINK-4003,1 52701U 22053AX  23042.97633211 -.00002737  00000-0 -15397-3 0  9999,2 52701  53.2146 129.6960 0001490  85.5717 274.5445 15.08830658 41547,6917.909,95.438,540.805,538.743,0.0
52701.0,STARLINK-4003,PAYLOAD,2023-02-12 12:09:00,15.08845599,0.0001102,53.2144,127.317,89.7672,270.3447,0.00051735,7.957e-05,0.0,0 STARLINK-4003,1 52701U 22053AX  23043.50625145  .00007957  00000-0  51735-3 0  9999,2 52701  53.2144 127.3170 0001102  89.7672 270.3447 15.08845599 41624,6917.863,95.437,540.491,538.966,0.0
52701.0,STARLINK-4003,PAYLOAD,2023-02-13 11:59:48,15.08828233,0.0001349,53.2139,122.8573,95.3355,264.7791,0.00010233,1.341e-05,0.0,0 STARLINK-4003,1 52701U 22053AX  23044.49986670  .00001341  00000-0  10233-3 0  9990,2 52701  53.2139 122.8573 0001349  95.3355 264.7791 15.08828233 41770,6917.916,95.438,540.715,538.848,0.0
52701.0,STARLINK-4003,PAYLOAD,2023-02-13 13:35:11,15.08833686,0.0001322,53.214,122.5596,102.2313,257.8828,0.00035764,5.408e-05,0.0,0 STARLINK-4003,1 52701U 22053AX  23044.56610611  .00005408  00000-0  35764-3 0  9991,2 52701  53.2140 122.5596 0001322 102.2313 257.8828 15.08833686 42219,6917.9,95.438,540.679,538.85,0.0
52701.0,STARLINK-4003,PAYLOAD,2023-02-13 16:45:57,15.08842089,0.0001356,53.2143,121.9647,101.871,258.2434,0.00090861,0.00014203,0.0,0 STARLINK-4003,1 52701U 22053AX  23044.69858603  .00014203  00000-0  90861-3 0  9992,2 52701  53.2143 121.9647 0001356 101.8710 258.2434 15.08842089 41804,6917.874,95.437,540.677,538.801,0.0
52701.0,STARLINK-4003,PAYLOAD,2023-02-14 10:15:11,15.08880953,0.0001318,53.2142,118.6938,99.603,260.5111,0.0020439,0.00032427,0.0,0 STARLINK-4003,1 52701U 22053AX  23045.42721930  .00032427  00000-0  20439-2 0  9997,2 52701  53.2142 118.6938 0001318  99.6030 260.5111 15.08880953 41918,6917.755,95.435,540.532,538.708,0.0
52701.0,STARLINK-4003,PAYLOAD,2023-02-14 13:25:57,15.08891726,0.0001326,53.2143,118.0993,98.4463,261.6679,0.0021822,0.00034662,0.0,0 STARLINK-4003,1 52701U 22053AX  23045.55969489  .00034662  00000-0  21822-2 0  9994,2 52701  53.2143 118.0993 0001326  98.4463 261.6679 15.08891726 42361,6917.722,95.434,540.505,538.67,0.0
52701.0,STARLINK-4003,PAYLOAD,2023-02-14 16:36:43,15.08905012,0.0001313,53.2143,117.504,99.5903,260.5238,0.0024179,0.00038472,0.0,0 STARLINK-4003,1 52701U 22053AX  23045.69216930  .00038472  00000-0  24179-2 0  9996,2 52701  53.2143 117.5040 0001313  99.5903 260.5238 15.08905012 42380,6917.682,95.433,540.455,538.638,0.0
52701.0,STARLINK-4003,PAYLOAD,2023-02-14 21:22:52,15.08863533,9.24e-05,53.2144,116.6124,209.6054,150.4886,-0.00074075,-0.00012065,0.0,0 STARLINK-4003,1 52701U 22053AX  23045.89088505 -.00012065  00000-0 -74075-3 0  9996,2 52701  53.2144 116.6124 0000924 209.6054 150.4886 15.08863533 41984,6917.808,95.436,540.313,539.034,0.0
52701.0,STARLINK-4003,PAYLOAD,2023-02-15 08:30:35,15.08832782,0.0001876,53.2143,114.5301,102.3953,257.7249,0.00037346,5.659e-05,0.0,0 STARLINK-4003,1 52701U 22053AX  23046.35458085  .00005659  00000-0  37346-3 0  9991,2 52701  53.2143 114.5301 0001876 102.3953 257.7249 15.08832782 42056,6917.902,95.438,541.065,538.47,0.0
52701.0,STARLINK-4003,PAYLOAD,2023-02-15 11:41:21,15.08863926,0.0001293,53.2143,113.9358,118.6267,241.4855,0.0018815,0.00029803,0.0,0 STARLINK-4003,1 52701U 22053AX  23046.48705135  .00029803  00000-0  18815-2 0  9992,2 52701  53.2143 113.9358 0001293 118.6267 241.4855 15.08863926 42071,6917.807,95.436,540.567,538.778,0.0
